0 THORAD DELTA 1 DEB
1 08301U 74089BJ  13281.90440309  .00003237  00000-0  30857-2 0  1727
2 08301 103.0149 255.7123 0154337 089.4828 327.2056 13.76680061900900
0 THORAD DELTA 1 DEB
1 08301U 74089BJ  13286.84666792  .00003447  00000-0  32794-2 0  1748
2 08301 103.0133 262.4477 0154427 078.2928 341.6057 13.76710558901588
0 THORAD DELTA 1 DEB
1 08301U 74089BJ  13288.88232631  .00004683  00000-0  44285-2 0  1757
2 08301 103.0130 265.2215 0154339 073.6814 350.7267 13.76728946901866
0 THORAD DELTA 1 DEB
1 08301U 74089BJ  13291.50866993  .00004433  00000-0  41950-2 0  1764
2 08301 103.0137 268.8004 0154320 067.7375 047.5793 13.76749326902225
0 THORAD DELTA 1 DEB
1 08301U 74089BJ  13293.82397259  .00004809  00000-0  45436-2 0  1776
2 08301 103.0144 271.9552 0154298 062.4881 003.0147 13.76769270902549
0 THORAD DELTA 1 DEB
1 08301U 74089BJ  13295.85730422  .00005925  00000-0  55792-2 0  1781
2 08301 103.0149 274.7266 0154308 057.8881 001.0381 13.76787689902820
